KUIPER-00061            
1 64521U 25134X   25229.57752829  .00031042  00000+0  87324-3 0  9994
2 64521  51.8765  65.1690 0005409 306.5794  53.4694 15.36206527  9705
KUIPER-00062            
1 64522U 25134Y   25229.58335648  .00010361  00000+0  52545-3 0  9990
2 64522  51.8835  66.7295 0007999 315.4526  57.7901 15.17457191  5731
KUIPER-00063            
1 64523U 25134Z   25229.58335648  .00008594  00000+0  40532-3 0  9999
2 64523  51.8795  65.9456 0005457 253.7313 106.6138 15.20230113  5319
KUIPER-00064            
1 64524U 25134AA  25229.58335648  .00010473  00000+0  42912-3 0  9993
2 64524  51.8829  65.4121 0002404  20.0289 271.5721 15.24817309  5534
KUIPER-00065            
1 64525U 25134AB  25229.58335648  .00010652  00000+0  58138-3 0  9990
2 64525  51.8856  67.2928 0008017 319.3795  40.2575 15.14823069  4886
KUIPER-00066            
1 64526U 25134AC  25229.58335648  .00009021  00000+0  38561-3 0  9997
2 64526  51.8850  65.4206 0003755 300.9107 314.0219 15.23556838  5534
KUIPER-00069            
1 64816U 25151A   25229.02171063  .00038446  00000+0  10793-2 0  9995
2 64816  51.8777 134.4484 0004859 247.1393 112.9080 15.36168008  6055
KUIPER-00070            
1 64817U 25151B   25229.58335648  .00044656  00000+0  21596-2 0  9991
2 64817  51.8888 133.3188 0006853 279.8419 279.7456 15.18150150  4927
